NORAD_CAT_ID,OBJECT_NAME,OBJECT_TYPE,EPOCH,MEAN_MOTION,ECCENTRICITY,INCLINATION,RA_OF_ASC_NODE,ARG_OF_PERICENTER,MEAN_ANOMALY,BSTAR,MEAN_MOTION_DOT,MEAN_MOTION_DDOT,TLE_LINE0,TLE_LINE1,TLE_LINE2,SEMIMAJOR_AXIS,PERIOD,APOGEE,PERIGEE,DECAYED
52497.0,STARLINK-3884,PAYLOAD,2024-03-05 13:05:41,15.08827769,0.0001392,53.2171,104.8201,91.5823,268.5329,-0.00021225,-3.663e-05,0.0,0 STARLINK-3884,1 52497U 22049AY  24065.54562483 -.00003663  00000-0 -21225-3 0  9993,2 52497  53.2171 104.8201 0001392  91.5823 268.5329 15.08827769101568,6917.918,95.438,540.746,538.82,0.0
52497.0,STARLINK-3884,PAYLOAD,2024-03-05 19:27:15,15.08821292,0.0001159,53.2156,103.6295,87.5432,272.5692,-0.00021481,-3.703e-05,0.0,0 STARLINK-3884,1 52497U 22049AY  24065.81059161 -.00003703  00000-0 -21481-3 0  9996,2 52497  53.2156 103.6295 0001159  87.5432 272.5692 15.08821292101768,6917.938,95.439,540.604,539.001,0.0
52497.0,STARLINK-3884,PAYLOAD,2024-03-06 11:21:06,15.08829556,0.0001379,53.2173,100.6593,91.5012,268.6139,0.00017176,2.446e-05,0.0,0 STARLINK-3884,1 52497U 22049AY  24066.47298845  .00002446  00000-0  17176-3 0  9990,2 52497  53.2173 100.6593 0001379  91.5012 268.6139 15.08829556101862,6917.912,95.438,540.731,538.823,0.0
52497.0,STARLINK-3884,PAYLOAD,2024-03-06 19:18:01,15.08837225,0.0001124,53.2164,99.169,90.8442,269.2679,0.00022674,3.322e-05,0.0,0 STARLINK-3884,1 52497U 22049AY  24066.80418328  .00003322  00000-0  22674-3 0  9990,2 52497  53.2164  99.1690 0001124  90.8442 269.2679 15.08837225101913,6917.889,95.438,540.531,538.976,0.0
52497.0,STARLINK-3884,PAYLOAD,2024-03-07 11:11:52,15.08855135,0.0001281,53.2162,96.1947,92.87,267.2439,0.00046242,7.082e-05,0.0,0 STARLINK-3884,1 52497U 22049AY  24067.46657505  .00007082  00000-0  46242-3 0  9999,2 52497  53.2162  96.1947 0001281  92.8700 267.2439 15.08855135101851,6917.834,95.437,540.585,538.813,0.0
52497.0,STARLINK-3884,PAYLOAD,2024-03-08 01:30:21,15.08843555,8.89e-05,53.2175,93.5141,112.5939,247.5147,0.00021398,3.12e-05,0.0,0 STARLINK-3884,1 52497U 22049AY  24068.06274592  .00003120  00000-0  21398-3 0  9991,2 52497  53.2175  93.5141 0000889 112.5939 247.5147 15.08843555102108,6917.87,95.437,540.35,539.12,0.0
52497.0,STARLINK-3884,PAYLOAD,2024-03-08 07:51:53,15.08855719,0.0001696,53.2177,92.3299,97.929,262.1895,0.00027458,4.086e-05,0.0,0 STARLINK-3884,1 52497U 22049AY  24068.32769965  .00004086  00000-0  27458-3 0  9998,2 52497  53.2177  92.3299 0001696  97.9290 262.1895 15.08855719102146,6917.832,95.437,540.871,538.524,0.0
52497.0,STARLINK-3884,PAYLOAD,2024-03-08 18:59:34,15.08853511,0.0001274,53.2158,90.2474,94.0171,266.0967,6.973e-05,8.22e-06,0.0,0 STARLINK-3884,1 52497U 22049AY  24068.79137596  .00000822  00000-0  69730-4 0  9992,2 52497  53.2158  90.2474 0001274  94.0171 266.0967 15.08853511102056,6917.839,95.437,540.585,538.823,0.0
52497.0,STARLINK-3884,PAYLOAD,2024-03-09 04:31:53,15.08845465,0.0001436,53.2144,88.4639,93.2144,266.9012,-0.00010568,-1.97e-05,0.0,0 STARLINK-3884,1 52497U 22049AY  24069.18881869 -.00001970  00000-0 -10568-3 0  9996,2 52497  53.2144  88.4639 0001436  93.2144 266.9012 15.08845465102277,6917.864,95.437,540.722,538.735,0.0
52497.0,STARLINK-3884,PAYLOAD,2024-03-09 07:42:40,15.08845758,0.0001534,53.2155,87.8698,89.2205,270.8963,-7.5325e-05,-1.487e-05,0.0,0 STARLINK-3884,1 52497U 22049AY  24069.32129649 -.00001487  00000-0 -75325-4 0  9999,2 52497  53.2155  87.8698 0001534  89.2205 270.8963 15.08845758102138,6917.863,95.437,540.789,538.667,0.0
52497.0,STARLINK-3884,PAYLOAD,2024-03-10 10:44:13,15.08847159,0.0001449,53.2153,82.8135,95.325,264.7907,0.0002147,3.131e-05,0.0,0 STARLINK-3884,1 52497U 22049AY  24070.44737688  .00003131  00000-0  21470-3 0  9999,2 52497  53.2153  82.8135 0001449  95.3250 264.7907 15.08847159102463,6917.859,95.437,540.726,538.721,0.0
52497.0,STARLINK-3884,PAYLOAD,2024-03-11 04:13:28,15.08841942,0.0001367,53.2151,79.5405,95.8563,264.2585,0.00018758,2.699e-05,0.0,0 STARLINK-3884,1 52497U 22049AY  24071.17601907  .00002699  00000-0  18758-3 0  9997,2 52497  53.2151  79.5405 0001367  95.8563 264.2585 15.08841942102578,6917.874,95.437,540.685,538.794,0.0
52497.0,STARLINK-3884,PAYLOAD,2024-03-11 07:24:14,15.08844224,0.0001602,53.2162,78.9456,105.8692,254.2477,0.00015222,2.136e-05,0.0,0 STARLINK-3884,1 52497U 22049AY  24071.30849747  .00002136  00000-0  15222-3 0  9997,2 52497  53.2162  78.9456 0001602 105.8692 254.2477 15.08844224102436,6917.867,95.437,540.841,538.624,0.0
52497.0,STARLINK-3884,PAYLOAD,2024-03-12 04:04:15,15.08835784,0.0001623,53.2167,75.0848,104.1032,256.014,-4.0396e-05,-9.31e-06,0.0,0 STARLINK-3884,1 52497U 22049AY  24072.16962260 -.00000931  00000-0 -40396-4 0  9992,2 52497  53.2167  75.0848 0001623 104.1032 256.0140 15.08835784102727,6917.893,95.438,540.881,538.636,0.0
52497.0,STARLINK-3884,PAYLOAD,2024-03-12 16:47:20,15.08836865,0.0001646,53.2178,72.7053,101.1719,258.9458,-4.8081e-05,-1.053e-05,0.0,0 STARLINK-3884,1 52497U 22049AY  24072.69954344 -.00001053  00000-0 -48081-4 0  9999,2 52497  53.2178  72.7053 0001646 101.1719 258.9458 15.08836865102640,6917.89,95.438,540.894,538.616,0.0
52497.0,STARLINK-3884,PAYLOAD,2024-03-13 08:41:11,15.08842559,0.0001558,53.2183,69.7324,102.4654,257.6513,8.5381e-05,1.071e-05,0.0,0 STARLINK-3884,1 52497U 22049AY  24073.36194270  .00001071  00000-0  85381-4 0  9990,2 52497  53.2183  69.7324 0001558 102.4654 257.6513 15.08842559102901,6917.873,95.437,540.815,538.66,0.0
52497.0,STARLINK-3884,PAYLOAD,2024-03-13 16:38:07,15.0884142,0.0001608,53.2184,68.2443,90.8929,269.2248,0.00010097,1.319e-05,0.0,0 STARLINK-3884,1 52497U 22049AY  24073.69314441  .00001319  00000-0  10097-3 0  9996,2 52497  53.2184  68.2443 0001608  90.8929 269.2248 15.08841420102796,6917.876,95.437,540.853,538.629,0.0
52497.0,STARLINK-3884,PAYLOAD,2024-03-14 03:45:50,15.0883518,0.000159,53.2185,66.1627,90.7822,269.3352,0.00012392,1.684e-05,0.0,0 STARLINK-3884,1 52497U 22049AY  24074.15682963  .00001684  00000-0  12392-3 0  9990,2 52497  53.2185  66.1627 0001590  90.7822 269.3352 15.08835180103029,6917.895,95.438,540.86,538.66,0.0
52497.0,STARLINK-3884,PAYLOAD,2024-03-14 05:21:13,15.08836757,0.0001576,53.2182,65.8657,89.1044,271.0129,0.00011513,1.545e-05,0.0,0 STARLINK-3884,1 52497U 22049AY  24074.22306910  .00001545  00000-0  11513-3 0  9993,2 52497  53.2182  65.8657 0001576  89.1044 271.0129 15.08836757102872,6917.89,95.438,540.846,538.665,0.0
52497.0,STARLINK-3884,PAYLOAD,2024-03-14 22:50:27,15.08843735,0.0001727,53.218,62.5942,88.7413,271.3777,1.8729e-05,1e-07,0.0,0 STARLINK-3884,1 52497U 22049AY  24074.95170789  .00000010  00000-0  18729-4 0  9999,2 52497  53.2180  62.5942 0001727  88.7413 271.3777 15.08843735102982,6917.869,95.437,540.929,538.539,0.0
52497.0,STARLINK-3884,PAYLOAD,2024-03-15 08:22:45,15.08848332,0.000155,53.2176,60.8095,85.7375,274.3794,8.1619e-05,1.011e-05,0.0,0 STARLINK-3884,1 52497U 22049AY  24075.34914218  .00001011  00000-0  81619-4 0  9996,2 52497  53.2176  60.8095 0001550  85.7375 274.3794 15.08848332103201,6917.855,95.437,540.792,538.648,0.0
52497.0,STARLINK-3884,PAYLOAD,2024-03-15 22:41:14,15.08840736,0.0001407,53.2163,58.1328,85.5132,274.6021,0.00010428,1.372e-05,0.0,0 STARLINK-3884,1 52497U 22049AY  24075.94530493  .00001372  00000-0  10428-3 0  9990,2 52497  53.2163  58.1328 0001407  85.5132 274.6021 15.08840736103134,6917.878,95.438,540.716,538.77,0.0
52497.0,STARLINK-3884,PAYLOAD,2024-03-16 05:02:46,15.08840352,0.0001487,53.2173,56.9439,87.3096,272.8067,0.00014671,2.048e-05,0.0,0 STARLINK-3884,1 52497U 22049AY  24076.21026413  .00002048  00000-0  14671-3 0  9998,2 52497  53.2173  56.9439 0001487  87.3096 272.8067 15.08840352103337,6917.879,95.438,540.773,538.716,0.0
52497.0,STARLINK-3884,PAYLOAD,2024-03-16 08:13:32,15.08846361,0.0001481,53.2161,56.3483,92.9261,267.19,0.00011932,1.612e-05,0.0,0 STARLINK-3884,1 52497U 22049AY  24076.34274073  .00001612  00000-0  11932-3 0  9992,2 52497  53.2161  56.3483 0001481  92.9261 267.1900 15.08846361103190,6917.861,95.437,540.75,538.701,0.0
52497.0,STARLINK-3884,PAYLOAD,2024-03-17 08:04:19,15.08844949,0.0001567,53.2182,51.8855,116.3685,243.7468,9.7457e-06,-1.33e-06,0.0,0 STARLINK-3884,1 52497U 22049AY  24077.33634185 -.00000133  00000-0  97457-5 0  9992,2 52497  53.2182  51.8855 0001567 116.3685 243.7468 15.08844949103506,6917.865,95.437,540.814,538.646,0.0
52497.0,STARLINK-3884,PAYLOAD,2024-03-18 03:08:58,15.08790803,0.0002051,53.219,48.316,113.3877,246.7331,0.00071153,0.00011039,0.0,0 STARLINK-3884,1 52497U 22049AY  24078.13123708  .00011039  00000-0  71153-3 0  9994,2 52497  53.2190  48.3160 0002051 113.3877 246.7331 15.08790803103628,6918.031,95.441,541.315,538.477,0.0
52497.0,STARLINK-3884,PAYLOAD,2024-03-18 22:13:35,15.08835248,0.0001683,53.219,44.748,112.627,247.49,3.8623e-05,3.27e-06,0.0,0 STARLINK-3884,1 52497U 22049AY  24078.92610836  .00000327  00000-0  38623-4 0  9998,2 52497  53.2190  44.7480 0001683 112.6270 247.4900 15.08835248103580,6917.895,95.438,540.924,538.596,0.0
52497.0,STARLINK-3884,PAYLOAD,2024-03-19 04:35:08,15.08840642,0.0001561,53.2188,43.5594,110.1732,249.9428,7.0098e-05,8.28e-06,0.0,0 STARLINK-3884,1 52497U 22049AY  24079.19106535  .00000828  00000-0  70098-4 0  9992,2 52497  53.2188  43.5594 0001561 110.1732 249.9428 15.08840642103789,6917.878,95.438,540.823,538.664,0.0
52497.0,STARLINK-3884,PAYLOAD,2024-03-19 07:45:54,15.08841935,0.0001582,53.2189,42.964,112.1662,247.9499,8.222e-05,1.021e-05,0.0,0 STARLINK-3884,1 52497U 22049AY  24079.32354409  .00001021  00000-0  82220-4 0  9998,2 52497  53.2189  42.9640 0001582 112.1662 247.9499 15.08841935103649,6917.874,95.437,540.834,538.645,0.0
52497.0,STARLINK-3884,PAYLOAD,2024-03-20 06:01:17,15.08834556,0.0001514,53.2192,38.8007,100.6236,259.4927,0.00041116,6.261e-05,0.0,0 STARLINK-3884,1 52497U 22049AY  24080.25090177  .00006261  00000-0  41116-3 0  9990,2 52497  53.2192  38.8007 0001514 100.6236 259.4927 15.08834556103946,6917.897,95.438,540.809,538.715,0.0
